ION SCV-004             
1 50993U 22002K   26068.68892644  .00006538  00000+0  23198-3 0  9998
2 50993  97.2961 128.2294 0007216   1.6783 358.4480 15.29369331230088
STARLINK-35589          
1 66426U 25259E   26068.57538554  .00024330  00000+0  89058-3 0  9995
2 66426  42.9999 275.0108 0001843 261.7628  98.3015 15.27585849 19470
