[{"OBJECT_NAME":"ION SCV-004","OBJECT_ID":"2022-002K","EPOCH":"2026-03-09T16:32:03.244416","MEAN_MOTION":15.29369331,"ECCENTRICITY":0.00072157,"INCLINATION":97.2961,"RA_OF_ASC_NODE":128.2294,"ARG_OF_PERICENTER":1.6783,"MEAN_ANOMALY":358.448,"EPHEMERIS_TYPE":0,"CLASSIFICATION_TYPE":"U","NORAD_CAT_ID":50993,"ELEMENT_SET_NO":999,"REV_AT_EPOCH":23008,"BSTAR":0.00023198467,"MEAN_MOTION_DOT":6.538e-5,"MEAN_MOTION_DDOT":0},{"OBJECT_NAME":"STARLINK-35589","OBJECT_ID":"2025-259E","EPOCH":"2026-03-09T13:48:33.310656","MEAN_MOTION":15.27585849,"ECCENTRICITY":0.0001843,"INCLINATION":42.9999,"RA_OF_ASC_NODE":275.0108,"ARG_OF_PERICENTER":261.7628,"MEAN_ANOMALY":98.3015,"EPHEMERIS_TYPE":0,"CLASSIFICATION_TYPE":"U","NORAD_CAT_ID":66426,"ELEMENT_SET_NO":999,"REV_AT_EPOCH":1947,"BSTAR":0.00089058,"MEAN_MOTION_DOT":0.0002433,"MEAN_MOTION_DDOT":0}]
